NAVSTAR 77 (USA 289)    
1 43873U 18109A   24027.10305686 -.00000010  00000+0  00000+0 0  9998
2 43873  55.2428 126.6436 0028504 192.8156 246.4586  2.00573466 37583
